STARLINK-2460           
1 48120U 21027AE  26068.55193043  .00001444  00000+0  60877-4 0  9993
2 48120  53.1595 168.4494 0001173  88.5814 271.5321 15.30193110272463
TEVEL2-3                
1 63218U 25052J   26068.64540225  .00020365  00000+0  69446-3 0  9991
2 63218  97.3994 324.7775 0004761 105.7353 254.4413 15.30377031 54855
